EVENT_NAME: IR201711121818
EVENT_ID: IR201711121818
EVENT_DATE_YYYYMMDD: 20171112
EVENT_TIME_HHMMSS: 181816
EVENT_LATITUDE_DEGREE: 34.81
EVENT_LONGITUDE_DEGREE: 45.91
EVENT_DEPTH_KM: 18
HYPOCENTER_REFERENCE: BHRC
MAGNITUDE_W: 7.3
MAGNITUDE_W_REFERENCE: BHRC
MAGNITUDE_L: 
MAGNITUDE_L_REFERENCE: BHRC
FOCAL_MECHANISM: 
NETWORK: I1
STATION_CODE: KRD
STATION_NAME: Kerend
STATION_LATITUDE_DEGREE: 34.279 
STATION_LONGITUDE_DEGREE:  46.240
STATION_ELEVATION_M: 1562
LOCATION: 
SENSOR_DEPTH_M: 0
VS30_M/S: 800
SITE_CLASSIFICATION_2800code:
MORPHOLOGIC_CLASSIFICATION: 
EPICENTRAL_DISTANCE_KM: 66.237
EARTHQUAKE_BACKAZIMUTH_DEGREE: 332.8796
DATE_TIME_FIRST_SAMPLE_YYYYMMDD_HHMMSS: 
DATE_TIME_FIRST_SAMPLE_PRECISION: 
SAMPLING_INTERVAL_S: 0.005
NDATA: 19346
DURATION_S: 96.73
STREAM: HNN
UNITS: cm/s^2
INSTRUMENT:
INSTRUMENTAL_1: D
INSTRUMENTAL_2: 
INSTRUMENTAL_3: 
INSTRUMENTAL_4: 
INSTRUMENTAL_5: 
PGA_CM/S^2: 195.7811
TIME_PGA_S: 28.735
BASELINE_CORRECTION: BASELINE NOT REMOVED
FILTER_TYPE: 
FILTER_ORDER: 
LOW_CUT_FREQUENCY_HZ: 
HIGH_CUT_FREQUENCY_HZ: 
LATE/NORMAL_TRIGGERED: 
DATABASE_VERSION: IRANCA 1.0
HEADER_FORMAT: IRANCA 1.0 
DATA_TYPE: ACCELERATION
PROCESSING: converted to cm/s^2
DATA_TIMESTAMP_YYYYMMDD_HHMMSS: 
DATA_LICENSE: http://smd.bhrc.ac.ir/Portal/en/pages/show/copyrightsen & http://smd.bhrc.ac.ir/Portal/en/pages/show/copyrightsfa
DATA_CITATION: https://ismn.bhrc.ac.ir
DATA_CREATOR: ISMN, BHRC
ORIGINAL_DATA_MEDIATOR_CITATION: Iran Strong Motion Network http://ismn.bhrc.ac.ir/en
ORIGINAL_DATA_MEDIATOR: Iran Strong Motion Network http://ismn.bhrc.ac.ir/en
ORIGINAL_DATA_CREATOR_CITATION: Iran Strong Motion Network http://ismn.bhrc.ac.ir/en
ORIGINAL_DATA_CREATOR: network: I1 (Iran Strong Motion Network); owner: Road,Housing and Urban Development Research CENTER, BHRC, IRAN
USER1: 
USER2: 
USER3: 
USER4: The original file number from BHRC is 7302/01.V1
USER5:  - Orientation: 0
[...]
-0.171502
1.259790
1.736880
2.691079
3.645268
4.122358
5.076557
5.553647
6.030737
5.553647
4.122358
1.736880
-1.125688
-4.465394
-6.850794
-9.236292
-10.667590
-12.098869
-13.530148
-14.961525
-16.869865
-18.778204
-20.686641
-22.594981
-23.549199
-24.026260
-23.549199
-22.117920
-20.686641
-18.778204
-16.392804
-14.007307
-11.144749
-8.759231
-5.896673
-3.988236
-1.602787
-0.171502
1.259790
2.213980
3.168169
3.168169
3.645268
3.168169
2.691079
1.736880
0.782687
-0.648592
-1.602787
-2.079877
-2.079877
-1.602787
-1.125688
0.305597
2.213980
5.076557
7.462261
10.803557
14.144843
17.008774
18.918094
19.872804
20.827415
20.827415
21.304769
21.304769
20.350158
19.872804
19.395449
18.440838
18.918094
19.395449
20.827415
22.736735
24.646055
27.032730
28.942051
30.374016
31.805982
32.283337
31.805982
30.851371
28.942051
26.555376
24.646055
22.736735
20.827415
18.918094
17.008774
15.099552
12.235523
9.848946
7.462261
5.553647
4.599458
4.122358
5.076557
6.984936
9.371581
11.758266
12.712877
12.235523
11.280911
9.371581
7.462261
5.553647
3.645268
2.691079
1.736880
0.782687
-0.171502
-1.125688
-1.602787
-2.079877
-2.079877
-2.556977
-3.034115
-3.511176
-3.511176
-2.556977
-1.125688
1.259790
3.168169
5.076557
6.507836
6.984936
6.984936
6.507836
5.076557
3.168169
1.259790
-1.602787
-5.419515
-10.190530
-16.392804
-23.072139
-29.751474
-36.430808
-41.201706
-45.495641
-47.881040
-50.266538
-51.697817
-53.129096
-53.129096
-52.652036
-51.220757
-48.835259
-46.449761
-44.064264
-41.201706
-39.293366
-37.384929
-35.953650
-34.522371
-32.614032
-31.182753
-29.751474
-28.797255
-28.797255
-27.843036
-26.888818
-24.980478
-23.072139
-19.732423
-15.915646
-12.098869
-8.282073
-3.511176
1.736880
6.507836
11.280911
15.099552
17.486129
19.395449
21.304769
24.168701
25.600765
25.600765
25.123410
25.123410
25.600765
25.600765
24.168701
20.827415
17.008774
12.235523
7.462261
4.122358
1.736880
-0.648592
-2.556977
-3.988236
-4.465394
-4.942455
-4.942455
-4.942455
-3.988236
-2.079877
-1.602787
-0.648592
0.782687
1.736880
1.736880
-0.171502
-2.079877
-2.079877
-0.648592
0.782687
4.122358
8.894246
12.712877
15.576809
17.963483
20.827415
23.214090
25.123410
26.555376
26.555376
25.600765
23.214090
19.395449
16.054163
13.190232
10.803557
7.462261
3.168169
-1.125688
-5.896673
-10.190530
-13.530148
-15.438586
-18.301144
-23.072139
-27.365976
-30.705594
-35.476590
-41.201706
-46.449761
-52.174975
-57.900092
-61.716868
-64.102366
-65.056487
-66.010705
-65.056487
-61.716868
-58.854310
-55.037534
-50.266538
-44.064264
-35.953650
-24.980478
-14.007307
-4.942455
3.168169
11.758266
18.918094
23.214090
25.600765
28.464696
31.328627
31.328627
28.464696
24.168701
19.395449
14.622197
9.848946
4.122358
-2.079877
-7.805013
-13.053088
-16.392804
-16.869865
-14.484367
-10.667590
-7.327952
-4.465394
-2.556977
-3.034115
-4.942455
-6.850794
-10.190530
-14.961525
-19.732423
-23.549199
-24.980478
-24.980478
-23.549199
-20.686641
-15.915646
-10.667590
-6.373734
-3.034115
1.736880
5.553647
5.076557
1.259790
-0.171502
0.782687
-1.125688
-5.896673
-9.713450
-12.098869
-14.484367
-16.392804
-13.530148
-4.942455
7.462261
22.736735
42.307195
64.264329
84.789498
100.541709
111.520080
121.066191
130.135536
132.999075
123.452964
105.314274
85.266852
65.219038
46.125835
28.942051
16.054163
7.462261
6.507836
11.758266
16.054163
16.054163
16.054163
17.963483
20.827415
25.123410
29.419405
30.374016
26.078021
19.872804
17.008774
14.622197
8.894246
3.168169
4.599458
11.758266
17.963483
23.214090
34.670012
46.125835
54.240471
61.877752
70.469645
79.061537
84.312143
93.858745
105.314274
110.087820
111.996846
119.633931
127.271997
130.135536
132.044562
133.954569
133.954569
132.044562
130.613283
131.090049
132.522309
134.909082
138.250368
142.546167
146.364219
149.705505
154.002285
160.207110
164.980656
167.844195
167.844195
167.367429
164.026143
158.298084
151.615512
143.022933
130.613283
115.338132
98.631702
81.448212
62.355009
42.784549
24.168701
6.030737
-12.098869
-29.274315
-43.110143
-52.652036
-58.377152
-59.808431
-57.423031
-50.743598
-40.247585
-25.934697
-10.190530
4.599458
17.963483
28.942051
38.011298
45.171224
50.899185
54.240471
55.195082
53.285762
48.989865
41.829938
32.283337
21.304769
7.462261
-7.805013
-25.457539
-45.018482
-66.010705
-87.002928
-105.609555
-121.353624
-135.189648
-147.117627
-156.182067
-163.338462
-169.540344
-174.311928
-178.128018
-181.468323
-183.376368
-183.853134
-182.899602
-180.990576
-178.605765
-175.743207
-172.402902
-168.109065
-162.383949
-155.705301
-148.071159
-138.528972
-127.078740
-114.674976
-101.793465
-87.957049
-72.690040
-57.423031
-43.587203
-30.228534
-20.209483
-10.667590
-1.125688
5.553647
10.326202
12.712877
13.190232
14.622197
16.531518
15.099552
10.803557
7.939586
8.894246
9.371581
7.462261
5.553647
5.553647
8.894246
8.894246
5.553647
6.984936
11.280911
17.963483
26.078021
31.805982
33.715302
35.624623
36.101977
33.237948
26.555376
9.848946
-19.255362
-55.037534
-87.479988
-113.243697
-132.803856
-140.914764
-135.189648
-118.968813
-100.838952
-89.865486
-85.094491
-81.277714
-75.075538
-70.304542
-65.533645
-60.762650
-55.991654
-55.514594
-59.331371
-63.148147
-67.441984
-73.167100
-80.323593
-87.957049
-95.590406
-102.746997
-107.040834
-107.995347
-108.472113
-106.087302
-101.793465
-95.113640
-86.525770
-76.983877
-66.010705
-53.606254
-39.293366
-25.934697
-14.007307
-2.556977
6.984936
16.054163
23.214090
27.032730
29.419405
28.464696
25.600765
24.646055
26.078021
26.555376
27.032730
30.374016
34.670012
36.101977
39.920618
46.125835
52.331151
53.285762
50.899185
46.125835
39.443263
29.896662
18.918094
6.984936
-5.896673
-18.778204
-30.705594
-40.724645
-46.449761
-52.174975
-58.854310
-66.010705
-74.121319
-81.754872
-87.479988
-91.296569
-92.727848
-91.296569
-86.525770
-79.369375
-70.304542
-60.285589
-48.358199
-35.953650
-24.503418
-17.824083
-14.484367
-11.144749
-8.759231
-9.236292
-11.621809
-13.530148
-13.053088
-13.053088
-15.438586
-21.640860
-30.228534
-40.247585
-52.174975
-64.102366
-76.029658
-86.048709
-94.636874
-102.270231
-106.564068
-106.087302
-99.407673
-87.002928
-71.735821
-54.560375
-35.476590
-15.438586
5.076557
22.259479
37.056588
50.421830
61.400398
69.992290
77.152217
81.925468
83.834789
83.834789
83.357532
84.789498
87.653429
91.472070
96.245321
101.496222
106.746534
111.042333
115.338132
120.588444
126.794250
129.181023
128.226510
123.930711
118.202652
111.042333
101.496222
87.653429
69.037679
48.512510
30.374016
14.622197
-0.648592
-16.869865
-33.568250
-50.743598
-66.964924
-82.709091
-99.407673
-112.765950
-121.831371
-126.125208
-128.510019
-132.327090
-136.620927
-141.391530
-142.822809
-141.391530
-137.575440
-132.803856
-127.556487
-119.445579
-108.949860
-97.021685
-84.617430
-71.735821
-57.423031
-41.201706
-24.503418
-10.190530
0.305597
7.462261
12.712877
15.099552
16.054163
16.531518
16.531518
15.576809
14.622197
14.622197
14.622197
14.622197
13.190232
8.894246
4.599458
-1.125688
-9.236292
-21.163702
-33.091092
-44.064264
-52.652036
-59.808431
-64.102366
-66.010705
-66.010705
-63.625208
-57.423031
-47.881040
-36.430808
-25.934697
-17.346925
-11.144749
-5.419515
-1.125688
-1.125688
-2.556977
-2.556977
-2.556977
-3.988236
-5.896673
-9.236292
-14.484367
-20.209483
-25.934697
-29.274315
-34.045311
-41.678864
-47.881040
-52.652036
-57.900092
-60.285589
-55.991654
-44.541422
-30.705594
-18.301144
-7.805013
1.736880
11.280911
23.214090
35.147268
44.216515
49.944476
54.717826
57.581757
60.445688
61.400398
60.923043
59.968432
59.968432
60.445688
61.877752
60.923043
60.923043
63.786974
68.082970
69.514935
69.037679
69.037679
68.560324
66.173649
63.786974
60.445688
57.104402
54.240471
53.285762
53.285762
53.285762
53.285762
52.808505
51.376442
47.080544
40.875229
33.237948
27.032730
21.782124
17.486129
13.190232
8.416921
4.122358
1.259790
-0.171502
-0.648592
-0.171502
1.736880
4.122358
6.030737
6.507836
8.416921
12.235523
18.918094
27.510085
37.533943
45.648579
51.853796
58.059112
62.832363
66.173649
69.037679
70.946999
72.378965
72.856221
71.901610
69.992290
67.605615
64.741684
61.877752
58.059112
53.285762
47.080544
39.443263
31.805982
23.691444
17.008774
11.280911
6.507836
2.213980
-1.125688
-2.556977
-3.034115
-3.034115
-2.556977
-1.125688
1.259790
4.122358
7.462261
9.848946
12.235523
13.667488
16.531518
20.827415
26.078021
32.283337
37.533943
41.829938
47.080544
51.853796
54.717826
56.149791
57.581757
60.445688
64.264329
67.128359
68.082970
66.651004
64.741684
63.309718
62.832363
62.355009
61.877752
60.445688
57.581757
52.808505
45.171224
36.101977
27.510085
22.259479
18.918094
14.622197
7.939586
-0.171502
-8.282073
-16.392804
-25.457539
-34.522371
-40.724645
-45.972701
-51.697817
-58.377152
-64.102366
-67.441984
-71.258761
-75.552598
-80.323593
-84.140370
-87.479988
-92.251082
-97.021685
-99.884439
-104.656023
-110.381139
-115.628508
-119.445579
-121.831371
-121.831371
-118.968813
-111.812418
-104.656023
-98.453160
-91.774316
-83.663212
-75.075538
-65.056487
-54.560375
-46.449761
-41.201706
-36.430808
-29.751474
-19.732423
-6.373734
5.553647
13.190232
17.486129
20.827415
24.168701
30.851371
41.352584
51.853796
59.968432
63.786974
63.309718
61.400398
60.923043
61.877752
61.877752
60.923043
57.104402
50.421830
45.171224
41.352584
36.579332
29.896662
19.872804
8.894246
-0.648592
-9.713450
-20.686641
-35.953650
-58.377152
-82.231933
-95.590406
-100.362186
-101.793465
-104.656023
-107.518581
-104.178276
-107.040834
-120.400092
-133.281603
-129.941298
-115.628508
-106.087302
-99.407673
-93.205595
-103.701510
-115.151742
-99.407673
-68.873263
-47.403980
-44.064264
-43.110143
-28.797255
-6.373734
8.894246
11.758266
12.235523
18.440838
20.827415
16.531518
13.190232
32.760691
58.536368
60.445688
49.944476
36.579332
34.192657
50.421830
74.765542
71.424256
31.328627
6.984936
38.011298
82.880177
70.946999
11.758266
-15.915646
7.462261
32.760691
22.259479
-17.824083
-26.888818
11.280911
17.486129
-34.999529
-84.140370
-79.369375
-41.201706
-13.053088
-17.824083
-42.632985
-52.652036
-44.064264
-40.724645
-53.129096
-57.423031
-34.522371
-11.621809
-15.438586
-42.155924
-65.533645
-71.258761
-53.129096
-20.209483
12.235523
45.171224
72.378965
49.467121
-12.098869
-52.174975
-45.972701
-18.778204
3.168169
30.374016
74.765542
102.928482
95.768065
55.195082
-5.419515
-52.174975
-59.331371
-23.072139
9.371581
7.462261
-6.850794
-3.988236
6.507836
7.939586
16.054163
50.421830
89.085395
107.701047
105.792021
85.744109
48.989865
9.848946
-8.282073
7.939586
48.989865
76.674862
59.491077
5.076557
-52.652036
-90.819705
-97.499432
-65.533645
-16.392804
8.416921
-2.079877
-32.136873
-54.560375
-57.423031
-43.587203
-7.805013
44.216515
84.789498
104.359761
129.657789
156.389058
135.863595
79.538891
39.920618
47.557801
81.448212
96.722676
73.333576
23.691444
-26.411757
-63.625208
-84.617430
-97.499432
-106.564068
-107.518581
-92.727848
-58.377152
-17.824083
16.531518
38.011298
39.443263
25.123410
10.326202
6.507836
10.326202
11.280911
12.235523
22.259479
31.805982
20.827415
-13.053088
-48.358199
-71.258761
-83.186151
-89.388426
-96.544919
-102.746997
-97.976198
-73.167100
-32.136873
16.531518
61.877752
91.472070
102.450735
113.905872
138.727134
159.730344
154.479051
131.090049
104.837508
76.197605
47.557801
22.736735
3.645268
-0.648592
6.507836
10.803557
2.213980
-14.484367
-32.614032
-49.789478
-58.377152
-52.652036
-25.457539
26.078021
94.336099
150.660999
175.959027
174.050001
161.161623
146.364219
127.748763
99.109449
57.104402
2.691079
-60.762650
-124.693929
-173.834181
-195.781113
-189.578250
-162.383949
-127.556487
-99.407673
-88.911267
-94.636874
-109.903392
-132.327090
-158.090112
-174.311928
-176.219973
-167.155533
-149.502438
-123.739416
-93.205595
-60.762650
-26.411757
6.507836
28.464696
40.875229
46.125835
45.648579
40.875229
36.101977
39.920618
52.808505
65.696295
74.288285
82.880177
92.904035
101.972988
108.655560
116.770392
129.657789
137.295855
131.567796
112.951359
90.517459
70.469645
55.672437
51.853796
61.400398
77.152217
86.221463
86.221463
83.834789
81.925468
78.584182
78.106926
80.016148
81.448212
77.629571
65.219038
39.920618
3.645268
-32.614032
-50.743598
-46.449761
-29.274315
-10.667590
7.462261
30.851371
52.331151
60.923043
61.400398
68.560324
84.312143
95.290710
88.608138
63.786974
27.032730
-15.915646
-66.487765
-103.224744
-118.968813
-126.601974
-128.033253
-117.537534
-96.544919
-66.964924
-26.411757
21.304769
68.560324
107.701047
129.657789
132.522309
118.679418
90.040104
51.853796
11.758266
-17.824083
-33.568250
-40.247585
-45.018482
-49.789478
-51.220757
-43.110143
-21.163702
7.939586
28.464696
31.805982
24.646055
16.054163
10.326202
3.645268
-11.621809
-34.045311
-55.037534
-65.533645
-61.239710
-43.110143
-17.346925
14.144843
53.285762
94.336099
129.181023
151.615512
158.298084
153.046791
141.113907
126.316503
109.133307
87.653429
61.400398
32.760691
9.371581
-1.602787
2.691079
27.510085
71.424256
118.679418
148.274226
149.705505
125.361990
87.653429
43.739258
0.305597
-37.384929
-69.350324
-96.544919
-115.628508
-122.308137
-113.243697
-89.865486
-57.423031
-26.411757
-7.805013
-4.942455
-13.530148
-29.274315
-50.266538
-79.369375
-109.426626
-130.419045
-140.914764
-142.822809
-141.391530
-137.575440
-126.601974
-107.040834
-84.617430
-72.690040
-72.690040
-79.369375
-89.865486
-98.453160
-107.518581
-118.014300
-124.216182
-119.445579
-105.132789
-85.094491
-61.716868
-39.293366
-23.072139
-8.759231
9.371581
29.896662
47.080544
55.195082
52.808505
45.648579
39.920618
36.579332
36.579332
33.237948
23.214090
9.848946
-6.850794
-24.980478
-38.816208
-45.495641
-47.881040
-46.449761
-42.632985
-38.339148
-39.770427
-48.835259
-66.010705
-87.957049
-109.903392
-125.647461
-130.419045
-124.693929
-114.197229
-105.609555
-101.315718
-98.453160
-93.682361
-88.911267
-84.617430
-80.323593
-75.552598
-73.167100
-71.735821
-66.010705
-55.037534
-41.678864
-30.228534
-21.640860
-11.621809
-2.556977
5.076557
11.758266
20.350158
32.283337
46.603190
59.013723
67.605615
71.424256
72.378965
72.856221
75.720251
79.538891
82.880177
84.789498
85.744109
87.176075
88.130784
87.653429
85.744109
83.834789
79.061537
71.424256
59.968432
46.125835
31.328627
16.054163
-1.125688
-15.915646
-23.549199
-24.980478
-25.934697
-26.411757
-20.686641
-12.576028
-9.713450
-11.144749
-11.621809
-12.576028
-17.824083
-24.026260
-26.411757
-24.980478
-23.549199
-24.980478
-26.888818
-26.888818
-24.503418
-19.732423
-15.915646
-13.053088
-11.144749
-13.053088
-17.824083
-22.117920
-24.026260
-22.594981
-16.392804
-6.373734
5.553647
17.963483
28.942051
38.011298
45.648579
50.421830
52.808505
52.331151
49.944476
46.125835
40.397874
34.192657
30.851371
31.328627
35.147268
39.920618
42.784549
42.307195
39.920618
35.624623
27.987341
16.531518
3.645268
-10.190530
-24.026260
-35.953650
-42.155924
-42.632985
-39.770427
-30.705594
-15.438586
3.168169
19.872804
32.760691
40.875229
43.261904
40.875229
37.056588
35.624623
37.533943
43.261904
50.899185
61.877752
73.333576
81.925468
87.176075
89.562749
90.994715
92.904035
91.472070
85.744109
76.674862
68.082970
61.400398
58.059112
58.536368
60.445688
61.400398
58.059112
48.512510
33.237948
15.099552
-4.942455
-24.980478
-44.064264
-60.285589
-71.735821
-76.983877
-76.029658
-68.396203
-58.854310
-49.312319
-39.293366
-29.274315
-20.686641
-14.961525
-12.098869
-10.190530
-8.282073
-5.896673
-3.034115
-0.171502
3.168169
3.645268
1.736880
-2.079877
-5.896673
-7.805013
-6.850794
-3.988236
0.782687
6.507836
13.190232
22.259479
33.237948
43.261904
48.989865
52.808505
58.059112
63.309718
64.264329
60.923043
53.763116
44.216515
31.805982
20.827415
11.280911
6.030737
4.122358
3.168169
2.213980
1.259790
-0.648592
-2.079877
-3.511176
-4.465394
-3.511176
-1.602787
0.305597
2.691079
3.168169
1.736880
-1.602787
-4.942455
-6.850794
-5.896673
-2.556977
1.259790
4.599458
6.984936
7.462261
5.076557
1.259790
-0.648592
-0.171502
1.736880
4.122358
6.030737
7.462261
7.462261
6.507836
4.122358
-1.125688
-9.236292
-20.209483
-32.136873
-41.678864
-46.449761
-45.972701
-40.724645
-34.999529
-32.136873
-33.091092
-34.999529
-36.907869
-37.384929
-37.384929
-35.476590
-30.705594
-23.549199
-14.007307
-2.079877
11.758266
25.600765
36.579332
42.307195
43.739258
41.829938
35.624623
26.078021
14.144843
1.736880
-8.759231
-15.438586
-17.346925
-15.438586
-7.805013
3.645268
16.531518
29.896662
39.920618
46.603190
49.467121
50.421830
50.421830
50.899185
51.376442
50.899185
49.467121
48.989865
48.512510
46.603190
43.739258
